{"type": "FeatureCollection", "features": [ {"type": "Feature", "properties": {"norad_id": 64901, "name": "CO3D 4", "group": "resource", "lat": 74.46683564709174, "lon": -93.68262169748071, "alt_km": 498.50637569625724, "timestamp": "2025-12-07T20:38:13.735520+00:00", "meta": {"OBJECT_NAME": "CO3D 4", "OBJECT_ID": "2025-156C", "EPOCH": "2025-12-07T05:57:54.297504", "MEAN_MOTION": 15.20198063, "ECCENTRICITY": 0.00010427, "INCLINATION": 97.4341, "RA_OF_ASC_NODE": 57.695, "ARG_OF_PERICENTER": 227.975, "MEAN_ANOMALY": 132.1396, "EPHEMERIS_TYPE": 0, "CLASSIFICATION_TYPE": "U", "NORAD_CAT_ID": 64901, "ELEMENT_SET_NO": 999, "REV_AT_EPOCH": 2037, "BSTAR": 0.00046046056, "MEAN_MOTION_DOT": 9.912e-05, "MEAN_MOTION_DDOT": 0}, "tle": {"line1": "1 64901U 25156C   25341.24854511  .00009912  00000+0  46046-3 0  9997", "line2": "2 64901  97.4341  57.6950 0001042 227.9750 132.1396 15.20198063 20373"}}, "geometry": {"type": "Point", "coordinates": [-93.68262169748071, 74.46683564709174]}}, {"type": "Feature", "properties": {"norad_id": 64902, "name": "CO3D 2", "group": "resource", "lat": -72.4124387548736, "lon": 82.52260653077472, "alt_km": 513.1740945545534, "timestamp": "2025-12-07T20:38:13.735530+00:00", "meta": {"OBJECT_NAME": "CO3D 2", "OBJECT_ID": "2025-156D", "EPOCH": "2025-12-07T06:44:40.526304", "MEAN_MOTION": 15.20195391, "ECCENTRICITY": 9.07e-05, "INCLINATION": 97.4343, "RA_OF_ASC_NODE": 57.6252, "ARG_OF_PERICENTER": 92.9461, "MEAN_ANOMALY": 267.1878, "EPHEMERIS_TYPE": 0, "CLASSIFICATION_TYPE": "U", "NORAD_CAT_ID": 64902, "ELEMENT_SET_NO": 999, "REV_AT_EPOCH": 2037, "BSTAR": 2.9077057e-05, "MEAN_MOTION_DOT": 5.62e-06, "MEAN_MOTION_DDOT": 0}, "tle": {"line1": "1 64902U 25156D   25341.28102461  .00000562  00000+0  29077-4 0  9990", "line2": "2 64902  97.4343  57.6252 0000907  92.9461 267.1878 15.20195391 20374"}}, "geometry": {"type": "Point", "coordinates": [82.52260653077472, -72.4124387548736]}}, {"type": "Feature", "properties": {"norad_id": 64903, "name": "CO3D 1", "group": "resource", "lat": -73.12737909842907, "lon": 83.69644340593348, "alt_km": 513.1980927079585, "timestamp": "2025-12-07T20:38:13.735540+00:00", "meta": {"OBJECT_NAME": "CO3D 1", "OBJECT_ID": "2025-156E", "EPOCH": "2025-12-07T06:44:53.620224", "MEAN_MOTION": 15.20204732, "ECCENTRICITY": 9.842e-05, "INCLINATION": 97.4343, "RA_OF_ASC_NODE": 57.6255, "ARG_OF_PERICENTER": 106.116, "MEAN_ANOMALY": 254.0184, "EPHEMERIS_TYPE": 0, "CLASSIFICATION_TYPE": "U", "NORAD_CAT_ID": 64903, "ELEMENT_SET_NO": 999, "REV_AT_EPOCH": 2037, "BSTAR": 0.00040016185, "MEAN_MOTION_DOT": 8.606e-05, "MEAN_MOTION_DDOT": 0}, "tle": {"line1": "1 64903U 25156E   25341.28117616  .00008606  00000+0  40016-3 0  9991", "line2": "2 64903  97.4343  57.6255 0000984 106.1160 254.0184 15.20204732 20372"}}, "geometry": {"type": "Point", "coordinates": [83.69644340593348, -73.12737909842907]}}, {"type": "Feature", "properties": {"norad_id": 66514, "name": "SENTINEL-6B", "group": "resource", "lat": -65.80611772435671, "lon": 74.3447910024629, "alt_km": 1315.4018119529437, "timestamp": "2025-12-07T20:38:13.735550+00:00", "meta": {"OBJECT_NAME": "SENTINEL-6B", "OBJECT_ID": "2025-264A", "EPOCH": "2025-12-05T07:31:22.416096", "MEAN_MOTION": 12.85877769, "ECCENTRICITY": 0.00115488, "INCLINATION": 66.0393, "RA_OF_ASC_NODE": 177.917, "ARG_OF_PERICENTER": 268.4031, "MEAN_ANOMALY": 91.5664, "EPHEMERIS_TYPE": 0, "CLASSIFICATION_TYPE": "U", "NORAD_CAT_ID": 66514, "ELEMENT_SET_NO": 999, "REV_AT_EPOCH": 233, "BSTAR": 0.00030181714, "MEAN_MOTION_DOT": 1.3e-07, "MEAN_MOTION_DDOT": 0}, "tle": {"line1": "1 66514U 25264A   25339.31345389  .00000013  00000+0  30182-3 0  9999", "line2": "2 66514  66.0393 177.9170 0011548 268.4031  91.5664 12.85877769  2335"}}, "geometry": {"type": "Point", "coordinates": [74.3447910024629, -65.80611772435671]}}]}